[{"OBJECT_NAME":"DMSP 5D-3 F16 (USA 172)","OBJECT_ID":"2003-048A","EPOCH":"2026-03-03T23:43:16.085568","MEAN_MOTION":14.14459516,"ECCENTRICITY":0.00082027,"INCLINATION":98.9997,"RA_OF_ASC_NODE":86.0725,"ARG_OF_PERICENTER":86.8106,"MEAN_ANOMALY":23.1171,"EPHEMERIS_TYPE":0,"CLASSIFICATION_TYPE":"U","NORAD_CAT_ID":28054,"ELEMENT_SET_NO":999,"REV_AT_EPOCH":15461,"BSTAR":0.00012750338,"MEAN_MOTION_DOT":1.99e-6,"MEAN_MOTION_DDOT":0},{"OBJECT_NAME":"METEOSAT-9 (MSG-2)","OBJECT_ID":"2005-049B","EPOCH":"2026-03-03T14:17:37.025952","MEAN_MOTION":1.00276803,"ECCENTRICITY":0.0001832,"INCLINATION":9.1231,"RA_OF_ASC_NODE":55.1899,"ARG_OF_PERICENTER":221.014,"MEAN_ANOMALY":145.2732,"EPHEMERIS_TYPE":0,"CLASSIFICATION_TYPE":"U","NORAD_CAT_ID":28912,"ELEMENT_SET_NO":999,"REV_AT_EPOCH":594,"BSTAR":0,"MEAN_MOTION_DOT":1.14e-6,"MEAN_MOTION_DDOT":0},{"OBJECT_NAME":"DMSP 5D-3 F17 (USA 191)","OBJECT_ID":"2006-050A","EPOCH":"2026-03-03T22:48:23.596704","MEAN_MOTION":14.14961025,"ECCENTRICITY":0.00100825,"INCLINATION":98.7412,"RA_OF_ASC_NODE":71.6621,"ARG_OF_PERICENTER":3.3873,"MEAN_ANOMALY":356.7368,"EPHEMERIS_TYPE":0,"CLASSIFICATION_TYPE":"U","NORAD_CAT_ID":29522,"ELEMENT_SET_NO":999,"REV_AT_EPOCH":99753,"BSTAR":0.00014859122,"MEAN_MOTION_DOT":2.44e-6,"MEAN_MOTION_DDOT":0},{"OBJECT_NAME":"FENGYUN 3A","OBJECT_ID":"2008-026A","EPOCH":"2026-03-03T19:32:53.373696","MEAN_MOTION":14.19544298,"ECCENTRICITY":0.00098117,"INCLINATION":98.6791,"RA_OF_ASC_NODE":5.6746,"ARG_OF_PERICENTER":73.393,"MEAN_ANOMALY":286.8323,"EPHEMERIS_TYPE":0,"CLASSIFICATION_TYPE":"U","NORAD_CAT_ID":32958,"ELEMENT_SET_NO":999,"REV_AT_EPOCH":92045,"BSTAR":9.4660786e-5,"MEAN_MOTION_DOT":1.56e-6,"MEAN_MOTION_DDOT":0},{"OBJECT_NAME":"GOES 14","OBJECT_ID":"2009-033A","EPOCH":"2026-03-03T19:47:38.927040","MEAN_MOTION":1.0012403,"ECCENTRICITY":0.00022135,"INCLINATION":1.4174,"RA_OF_ASC_NODE":84.43,"ARG_OF_PERICENTER":297.3554,"MEAN_ANOMALY":278.8486,"EPHEMERIS_TYPE":0,"CLASSIFICATION_TYPE":"U","NORAD_CAT_ID":35491,"ELEMENT_SET_NO":999,"REV_AT_EPOCH":553,"BSTAR":0,"MEAN_MOTION_DOT":1.16e-6,"MEAN_MOTION_DDOT":0},{"OBJECT_NAME":"DMSP 5D-3 F18 (USA 210)","OBJECT_ID":"2009-057A","EPOCH":"2026-03-03T21:55:17.755680","MEAN_MOTION":14.14831661,"ECCENTRICITY":0.00107958,"INCLINATION":98.8955,"RA_OF_ASC_NODE":43.9623,"ARG_OF_PERICENTER":184.8078,"MEAN_ANOMALY":175.2993,"EPHEMERIS_TYPE":0,"CLASSIFICATION_TYPE":"U","NORAD_CAT_ID":35951,"ELEMENT_SET_NO":999,"REV_AT_EPOCH":84470,"BSTAR":0.00020875548,"MEAN_MOTION_DOT":3.58e-6,"MEAN_MOTION_DDOT":0},{"OBJECT_NAME":"EWS-G2 (GOES 15)","OBJECT_ID":"2010-008A","EPOCH":"2026-03-03T22:56:08.153952","MEAN_MOTION":1.00269324,"ECCENTRICITY":0.00018056,"INCLINATION":1.008,"RA_OF_ASC_NODE":85.1578,"ARG_OF_PERICENTER":21.3342,"MEAN_ANOMALY":102.7379,"EPHEMERIS_TYPE":0,"CLASSIFICATION_TYPE":"U","NORAD_CAT_ID":36411,"ELEMENT_SET_NO":999,"REV_AT_EPOCH":5858,"BSTAR":0,"MEAN_MOTION_DOT":8.0e-8,"MEAN_MOTION_DDOT":0},{"OBJECT_NAME":"COMS 1","OBJECT_ID":"2010-032A","EPOCH":"2026-03-03T23:14:28.896000","MEAN_MOTION":1.00272871,"ECCENTRICITY":0.00011879,"INCLINATION":4.5347,"RA_OF_ASC_NODE":76.8758,"ARG_OF_PERICENTER":278.6079,"MEAN_ANOMALY":283.0302,"EPHEMERIS_TYPE":0,"CLASSIFICATION_TYPE":"U","NORAD_CAT_ID":36744,"ELEMENT_SET_NO":999,"REV_AT_EPOCH":5003,"BSTAR":0,"MEAN_MOTION_DOT":-3.55e-6,"MEAN_MOTION_DDOT":0},{"OBJECT_NAME":"FENGYUN 3B","OBJECT_ID":"2010-059A","EPOCH":"2026-03-03T22:33:20.658816","MEAN_MOTION":14.14814414,"ECCENTRICITY":0.00229906,"INCLINATION":98.9779,"RA_OF_ASC_NODE":108.4411,"ARG_OF_PERICENTER":123.6957,"MEAN_ANOMALY":336.8098,"EPHEMERIS_TYPE":0,"CLASSIFICATION_TYPE":"U","NORAD_CAT_ID":37214,"ELEMENT_SET_NO":999,"REV_AT_EPOCH":79254,"BSTAR":-6.5913251e-5,"MEAN_MOTION_DOT":-1.73e-6,"MEAN_MOTION_DDOT":0},{"OBJECT_NAME":"SUOMI NPP","OBJECT_ID":"2011-061A","EPOCH":"2026-03-03T23:07:24.640896","MEAN_MOTION":14.1954166,"ECCENTRICITY":4.281e-5,"INCLINATION":98.7864,"RA_OF_ASC_NODE":4.6119,"ARG_OF_PERICENTER":286.0376,"MEAN_ANOMALY":74.0753,"EPHEMERIS_TYPE":0,"CLASSIFICATION_TYPE":"U","NORAD_CAT_ID":37849,"ELEMENT_SET_NO":999,"REV_AT_EPOCH":74351,"BSTAR":7.8396587e-5,"MEAN_MOTION_DOT":1.21e-6,"MEAN_MOTION_DDOT":0},{"OBJECT_NAME":"METEOSAT-10 (MSG-3)","OBJECT_ID":"2012-035B","EPOCH":"2026-03-03T19:12:38.752992","MEAN_MOTION":1.00277243,"ECCENTRICITY":0.00025011,"INCLINATION":4.4223,"RA_OF_ASC_NODE":61.466,"ARG_OF_PERICENTER":294.0063,"MEAN_ANOMALY":94.5172,"EPHEMERIS_TYPE":0,"CLASSIFICATION_TYPE":"U","NORAD_CAT_ID":38552,"ELEMENT_SET_NO":999,"REV_AT_EPOCH":4980,"BSTAR":0,"MEAN_MOTION_DOT":-1.5e-7,"MEAN_MOTION_DDOT":0},{"OBJECT_NAME":"METOP-B","OBJECT_ID":"2012-049A","EPOCH":"2026-03-03T22:54:32.197248","MEAN_MOTION":14.21442476,"ECCENTRICITY":0.00012161,"INCLINATION":98.6653,"RA_OF_ASC_NODE":116.4862,"ARG_OF_PERICENTER":297.7518,"MEAN_ANOMALY":62.3536,"EPHEMERIS_TYPE":0,"CLASSIFICATION_TYPE":"U","NORAD_CAT_ID":38771,"ELEMENT_SET_NO":999,"REV_AT_EPOCH":69831,"BSTAR":9.1006673e-5,"MEAN_MOTION_DOT":1.55e-6,"MEAN_MOTION_DDOT":0},{"OBJECT_NAME":"INSAT-3D","OBJECT_ID":"2013-038B","EPOCH":"2026-03-03T23:14:58.848288","MEAN_MOTION":1.00273595,"ECCENTRICITY":0.00017716,"INCLINATION":1.6544,"RA_OF_ASC_NODE":83.9201,"ARG_OF_PERICENTER":240.8778,"MEAN_ANOMALY":315.1496,"EPHEMERIS_TYPE":0,"CLASSIFICATION_TYPE":"U","NORAD_CAT_ID":39216,"ELEMENT_SET_NO":999,"REV_AT_EPOCH":4602,"BSTAR":0,"MEAN_MOTION_DOT":-3.51e-6,"MEAN_MOTION_DDOT":0},{"OBJECT_NAME":"FENGYUN 3C","OBJECT_ID":"2013-052A","EPOCH":"2026-03-03T22:49:41.305728","MEAN_MOTION":14.15726814,"ECCENTRICITY":0.00141084,"INCLINATION":98.4882,"RA_OF_ASC_NODE":41.7163,"ARG_OF_PERICENTER":330.4926,"MEAN_ANOMALY":29.5451,"EPHEMERIS_TYPE":0,"CLASSIFICATION_TYPE":"U","NORAD_CAT_ID":39260,"ELEMENT_SET_NO":999,"REV_AT_EPOCH":64367,"BSTAR":0.00010111971,"MEAN_MOTION_DOT":1.57e-6,"MEAN_MOTION_DDOT":0},{"OBJECT_NAME":"METEOR-M 2","OBJECT_ID":"2014-037A","EPOCH":"2026-03-03T21:52:11.915328","MEAN_MOTION":14.21426434,"ECCENTRICITY":0.00056929,"INCLINATION":98.5011,"RA_OF_ASC_NODE":42.4353,"ARG_OF_PERICENTER":354.6914,"MEAN_ANOMALY":5.4203,"EPHEMERIS_TYPE":0,"CLASSIFICATION_TYPE":"U","NORAD_CAT_ID":40069,"ELEMENT_SET_NO":999,"REV_AT_EPOCH":60436,"BSTAR":0.00015718516,"MEAN_MOTION_DOT":3.01e-6,"MEAN_MOTION_DDOT":0},{"OBJECT_NAME":"HIMAWARI-8","OBJECT_ID":"2014-060A","EPOCH":"2026-03-03T23:18:06.049440","MEAN_MOTION":1.00272003,"ECCENTRICITY":7.819e-5,"INCLINATION":0.0335,"RA_OF_ASC_NODE":250.8339,"ARG_OF_PERICENTER":74.2519,"MEAN_ANOMALY":326.8113,"EPHEMERIS_TYPE":0,"CLASSIFICATION_TYPE":"U","NORAD_CAT_ID":40267,"ELEMENT_SET_NO":999,"REV_AT_EPOCH":4170,"BSTAR":0,"MEAN_MOTION_DOT":-2.89e-6,"MEAN_MOTION_DDOT":0},{"OBJECT_NAME":"FENGYUN 2G","OBJECT_ID":"2014-090A","EPOCH":"2026-03-03T23:06:29.661984","MEAN_MOTION":1.00274673,"ECCENTRICITY":0.00019379,"INCLINATION":5.3729,"RA_OF_ASC_NODE":74.0915,"ARG_OF_PERICENTER":152.944,"MEAN_ANOMALY":20.9763,"EPHEMERIS_TYPE":0,"CLASSIFICATION_TYPE":"U","NORAD_CAT_ID":40367,"ELEMENT_SET_NO":999,"REV_AT_EPOCH":4094,"BSTAR":0,"MEAN_MOTION_DOT":-3.13e-6,"MEAN_MOTION_DDOT":0}]
